#aV2008 10 28  0  0   .00000000      96 DD+AD WGS84 FIT  NGA
## 1503 172800.00000000   900.00000000 54767  .0000000000000
+   31     2  3  4  5  6  7  8  9 10 11 12 13 14 15 16 17 18
+         19 20 21 22 23 24 25 26 27 28 29 30 31 32  0  0  0
+          0  0  0  0  0  0  0  0  0  0  0  0  0  0  0  0  0
+          0  0  0  0  0  0  0  0  0  0  0  0  0  0  0  0  0
+          0  0  0  0  0  0  0  0  0  0  0  0  0  0  0  0  0
++         0  0  0  0  0  0  0  0  0  0  0  0  0  0  0  0  0
++         0  0  0  0  0  0  0  0  0  0  0  0  0  0  0  0  0
++         0  0  0  0  0  0  0  0  0  0  0  0  0  0  0  0  0
++         0  0  0  0  0  0  0  0  0  0  0  0  0  0  0  0  0
++         0  0  0  0  0  0  0  0  0  0  0  0  0  0  0  0  0
%c cc cc ccc ccc cccc cccc cccc cccc ccccc ccccc ccccc ccccc
%c cc cc ccc ccc cccc cccc cccc cccc ccccc ccccc ccccc ccccc
%f  0.0000000  0.000000000  0.00000000000  0.000000000000000
%f  0.0000000  0.000000000  0.00000000000  0.000000000000000
%i    0    0    0    0      0      0      0      0         0
%i    0    0    0    0      0      0      0      0         0
/*      NGA, ST. LOUIS,MO.                                  
/*   EPHEMERIS COMPUTED FROM  3 DAYS OF DATA                
/* CCCCCCCCCCCCCCCCCCCCCCCCCCCCCCCCCCCCCCCCCCCCCCCCCCCCCCCCC
/* CCCCCCCCCCCCCCCCCCCCCCCCCCCCCCCCCCCCCCCCCCCCCCCCCCCCCCCCC
*  2008 10 28 10 30   .00000000                                                 
P  2   7575.986759  19184.501061  16802.790955    177.065756                    
V  2 -19213.958954  -9833.187696  19359.943057      -.026060                    
P  3   -178.714736 -17807.219728 -19897.119411    303.174705                    
V  3  21618.198330 -12395.874395  11419.582450       .053181                    
P  4  -8276.434268  13179.407224  21404.771899   -214.355712                    
V  4 -23131.025787 -14919.575529    609.451752      -.118014                    
P  5  14577.802244  10186.198866  19469.819959   -340.214889                    
V  5   -252.229393  25422.169196 -12792.572053      -.442918                    
P  6   5694.424775 -18535.112707 -17962.877967    152.860754                    
V  6  21232.864255  -9750.711870  16627.872511      -.054943                    
P  7 -22975.355101  -4329.253113 -12726.777764     22.683128                    
V  7 -12362.884819 -10487.754016  25831.937726       .005364                    
P  8 -15799.936699   5544.995512 -20811.920796   -175.804166                    
V  8 -20809.001970 -15704.575567  11169.150669      -.014526                    
P  9  21530.458947  15433.174791  -3286.030178     22.049446                    
V  9  -4037.092125    197.013334 -31611.936618       .019301                    
P 10   1617.409253  25868.793884  -5062.011673     -6.560826                    
V 10  -3455.667504   6073.340448  31101.166199      -.004817                    
P 11 -24054.302798 -11483.523118  -2393.711765     16.877789                    
V 11   4336.728399  -3282.594550 -29715.799797      -.007554                    
P 12  11722.697783  15668.433375  18076.211831   -343.998565                    
V 12  -2641.640068  22653.204392 -17900.187928       .021571                    
P 13 -24348.378205   4053.984920   9684.691823    275.365261                    
V 13  10690.831315  -6525.696586  29264.785821       .010492                    
P 14  19344.480432 -15732.513734   9097.398271   -201.766334                    
V 14  11074.319861  -3217.909052 -29597.066765       .048617                    
P 15   9643.913496  12081.922239 -21569.400901   -201.477436                    
V 15 -24141.030666  13112.390151  -3419.829620      -.062983                    
P 16   2689.083204 -26280.188808   1251.619800     98.813926                    
V 16   2712.681342   1720.795787  31961.924698      -.022685                    
P 17 -20092.381278  15635.642453   7280.030723     39.882930                    
V 17  -9532.659517   1558.441620 -30003.905637       .003190                    
P 18  15378.342843  -6008.525605 -20526.018197   -118.828584                    
V 18  -1085.252953  26674.254811  -8896.969237       .039580                    
P 19 -10633.198220 -11748.269264 -21276.282316     35.655844                    
V 19  24792.813842 -11085.959615  -6038.372813      -.000334                    
P 20 -13606.976960 -12000.821411  19298.052033    100.660776                    
V 20   2185.978195 -24735.197604 -13719.472284      -.010322                    
P 21  21399.532117    351.858648 -15888.039574     44.900817                    
V 21  15721.646817  13168.869071  20566.503611      -.015177                    
P 22  11862.238974 -19096.644993 -13933.123943    209.985980                    
V 22   1045.701731  18202.755613 -23837.316785      -.003542                    
P 23 -20075.014470  -3018.243713  17217.993448    378.212471                    
V 23  18839.225808 -11122.775494  19691.295610       .012499                    
P 24  22838.194773  12373.564806  -4633.567871    136.660776                    
V 24   3062.366210   6234.132023  31006.524346       .029234                    
P 25 -24409.740818  -8436.807818  -5428.576271    -23.611375                    
V 25  -5291.281925  -5824.473847  31004.014691       .327962                    
P 26   3863.424787  14332.204056 -22488.941400      8.365283                    
V 26 -25032.720836  10899.569909   3221.632617       .048037                    
P 27 -21995.778133  -1251.220530 -14233.937607    228.476969                    
V 27 -15737.776001 -11168.966756  24052.820982       .028847                    
P 28 -11994.319601  17583.706225 -15273.469122    -23.327688                    
V 28   -672.119651 -20353.238940 -22657.291467      -.001015                    
P 29  23582.823250  -1994.236834  12126.124383    -32.600342                    
V 29 -12687.700107   8783.261362  26382.756323       .016191                    
P 30  15286.223363    250.480594  21359.468912    104.578513                    
V 30   -207.750124  28019.406644    -93.138374       .021029                    
P 31   4598.061861 -14773.565162  21782.840026    -35.132562                    
V 31  23086.154437  14298.462469   4975.589165      -.022279                    
P 32  -8818.739831 -19386.282347  16427.606553    315.521994                    
V 32   4172.362170 -19585.826019 -21238.477438      -.007431                    
EOF
